#aV2021  1  4  0  0  0.00000000     288 DD+AD WGS84 FIT  NGA
## 2139  86400.00000000   300.00000000 59218 0.0000000000000
+   32     1  2  3  4  5  6  7  8  9 10 11 12 13 14 15 16 17
+         18 19 20 21 22 23 24 25 26 27 28 29 30 31 32  0  0
+          0  0  0  0  0  0  0  0  0  0  0  0  0  0  0  0  0
+          0  0  0  0  0  0  0  0  0  0  0  0  0  0  0  0  0
+          0  0  0  0  0  0  0  0  0  0  0  0  0  0  0  0  0
++         2  2  2  2  2  2  2  2  2  2  2  2  2  2  2  2  2
++         2  2  2  2  2  2  2  2  2  2  2  2  2  2  2  0  0
++         0  0  0  0  0  0  0  0  0  0  0  0  0  0  0  0  0
++         0  0  0  0  0  0  0  0  0  0  0  0  0  0  0  0  0
++         0  0  0  0  0  0  0  0  0  0  0  0  0  0  0  0  0
%c cc cc ccc ccc cccc cccc cccc cccc ccccc ccccc ccccc ccccc
%c cc cc ccc ccc cccc cccc cccc cccc ccccc ccccc ccccc ccccc
%f  0.0000000  0.000000000  0.00000000000  0.000000000000000
%f  0.0000000  0.000000000  0.00000000000  0.000000000000000
%i    0    0    0    0      0      0      0      0         0
%i    0    0    0    0      0      0      0      0         0
/*      NGA, ST. LOUIS,MO.                                  
/*   EPHEMERIS COMPUTED FROM 2 DAYS OF DATA                 
/*   EPOCHA v5 SMOOTHER                                     
/*   G2139 IERS2010 SATAF SATAPC                            
*  2021  1  4  5  0  0.00000000
P  1  20406.461004  11847.063661  12282.339038    785.872538                    
V  1   8846.989024  13209.016494 -26591.000934     -0.060145                    
P  2 -12521.843689 -21884.647380   8992.182442   -562.088279                    
V  2   9061.909825   5847.439964  28991.569488     -0.042838                    
P  3  15319.809631   1281.990075  21567.581098    -47.264417                    
V  3  -8987.967658  26063.947382   4914.920782     -0.098538                    
P  4  25243.493469   2082.746770   8075.547491   -169.941901                    
V  4  -9764.734239   4037.590682  29441.807789     -0.030855                    
P  5  -5728.222749 -20084.111931 -16456.028832    -30.077712                    
V  5   8310.454043 -19064.867992  20745.099733     -0.009889                    
P  6   -125.188210 -19219.260576  18375.507956     -4.630992                    
V  6  15815.526165  16969.128492  17960.439512     -0.001129                    
P  7  16273.525532  -3227.381161 -20508.741882      8.287350                    
V  7  16436.475852  21080.303103   9092.946590      0.146744                    
P  8  20932.971800   6548.530068 -15174.597308     -5.340757                    
V  8 -18476.615873   5312.477196 -22897.065521     -0.013513                    
P  9  25268.408660  -7462.775608  -3504.293777   -308.975964                    
V  9   4869.045391   2120.417953  31147.379242     -0.041844                    
P 10 -11661.826646  23251.501885  -4508.355532    -31.336907                    
V 10   -612.701643  -6480.448754 -31399.021317     -0.086218                    
P 11  23700.544320  11438.176211  -1991.919318    -62.719957                    
V 11  -3639.111572   3445.245816 -30771.585706      0.105686                    
P 12 -13508.323364  -5985.327509  21828.909608     17.739005                    
V 12  11426.713500 -25844.256999    133.805133     -0.052194                    
P 13 -11792.968100 -13220.265044 -19963.023565     82.123864                    
V 13  24919.231314  -2145.995710 -13274.959562      0.040780                    
P 14  13848.359155 -21765.550968  -6321.964329     79.259518                    
V 14   -541.278855   8461.233367 -30353.048545      0.073566                    
P 15 -22171.856391  -4733.862578 -14479.205762   -178.709505                    
V 15  16292.584069  -7413.793277 -22735.446700      0.025856                    
P 16   2808.759955  20504.108072 -16602.083133   -260.018563                    
V 16 -10407.400347  18097.951554  21329.809914     -0.055255                    
P 17  13947.618150 -13888.336579  18259.069451    375.776566                    
V 17  22240.972340  -1495.953139 -18587.219413      0.048483                    
P 18 -14368.838176   5884.970790 -21559.646010    338.543885                    
V 18 -16794.824275 -21576.689987   5248.910317      0.031036                    
P 19   6494.598986 -14524.691693  20968.936643    -56.496799                    
V 19  27224.044829  -1239.973339  -9249.607321      0.049981                    
P 20 -14932.022321  15379.780692 -15571.923883    525.319412                    
V 20   1531.135990 -19950.985320 -21523.820080     -0.001797                    
P 21  20938.072922  15990.000755   5510.983466     83.715688                    
V 21   2409.352605   6018.538730 -30373.031188      0.033966                    
P 22  13146.741189  10529.092962  20762.631037   -704.244972                    
V 22  -7340.399688  24949.291280  -7917.615363      0.064623                    
P 23 -15698.074840  16198.255819 -14020.690912    114.412266                    
V 23   3620.342725 -17525.703278 -24378.938741      0.020146                    
P 24 -21359.213426 -14049.054832   7672.972117      4.152535                    
V 24  -4678.052327  -9357.041683 -28867.876868     -0.006313                    
P 25 -16721.100782   9080.184071  18165.116776     52.792606                    
V 25   6442.120760 -22841.965127  17383.948120      0.074899                    
P 26  -3497.909790  25490.077768  -6061.268978     24.682583                    
V 26  -5602.721216   6315.656616  30264.361555      0.057500                    
P 27   9141.155292  13077.760538 -21445.005391    -48.862445                    
V 27 -26276.933608   5081.760279  -7811.410313     -0.078596                    
P 28  12549.569838 -23377.929594  -2011.334761    634.396896                    
V 28    651.156967   3880.917786 -31815.185239     -0.050393                    
P 29 -26069.347698   4503.378723  -2646.885117   -269.072597                    
V 29  -3494.694084  -1648.769035  32016.292817     -0.073988                    
P 30   8382.174050 -14063.994527 -20835.375577   -363.324332                    
V 30  17285.054477  20352.756157  -6987.149119     -0.061554                    
P 31   1570.784924  20545.851416  16418.580530    -91.745544                    
V 31 -14960.758758 -15167.638572  20780.476360     -0.023603                    
P 32 -12608.917194  15121.182839  17838.468580     12.326554                    
V 32 -22490.398397   2380.186906 -18166.093724      0.022431                    
EOF
